IRIDIUM 166             
1 43570U 18061B   25251.84882594  .00000232  00000+0  75725-4 0  9994
2 43570  86.4044 174.3174 0002432  82.0206 278.1266 14.34217964373076
IRIDIUM 158             
1 43571U 18061C   25251.81711238  .00000302  00000+0  10088-3 0  9996
2 43571  86.4044 174.3406 0002160  88.7483 271.3960 14.34217371373037
IRIDIUM 165             
1 43572U 18061D   25251.84248351  .00000304  00000+0  10155-3 0  9998
2 43572  86.4046 174.3708 0002294  81.6639 278.4817 14.34218464373064
IRIDIUM 155             
1 43573U 18061E   25251.87419601  .00000281  00000+0  93312-4 0  9991
2 43573  86.4041 174.2409 0002380  87.9600 272.1869 14.34218052373038
IRIDIUM 154             
1 43574U 18061F   25251.85516819  .00000004  00000+0 -54638-5 0  9992
2 43574  86.4048 174.3683 0002122  82.4338 277.7099 14.34220071373088
IRIDIUM 163             
1 43575U 18061G   25251.83614015  .00000147  00000+0  45585-4 0  9995
2 43575  86.4042 174.3005 0002079  87.3839 272.7594 14.34217769373054
IRIDIUM 156             
1 43576U 18061H   25251.88053931  .00000213  00000+0  69022-4 0  9991
2 43576  86.4043 174.2890 0002485  87.6986 272.4495 14.34217626373053
IRIDIUM 164             
1 43577U 18061J   25251.86151087  .00000213  00000+0  69074-4 0  9998
2 43577  86.4042 174.3327 0002353  80.1607 279.9854 14.34218166373096
